NORAD_CAT_ID,OBJECT_NAME,OBJECT_TYPE,EPOCH,MEAN_MOTION,ECCENTRICITY,INCLINATION,RA_OF_ASC_NODE,ARG_OF_PERICENTER,MEAN_ANOMALY,BSTAR,MEAN_MOTION_DOT,MEAN_MOTION_DDOT,TLE_LINE0,TLE_LINE1,TLE_LINE2,SEMIMAJOR_AXIS,PERIOD,APOGEE,PERIGEE,DECAYED
52649.0,STARLINK-3868,PAYLOAD,2024-05-04 12:04:18,15.0882371,0.0001361,53.2172,45.5171,84.311,275.8037,0.00028379,4.23e-05,0.0,0 STARLINK-3868,1 52649U 22052BD  24125.50299186  .00004230  00000-0  28379-3 0  9992,2 52649  53.2172  45.5171 0001361  84.3110 275.8037 15.08823710109736,6917.93,95.439,540.737,538.854,0.0
52649.0,STARLINK-3868,PAYLOAD,2024-05-05 03:58:10,15.08851745,0.0001409,53.2173,42.5434,79.9866,280.1285,0.0015698,0.00024792,0.0,0 STARLINK-3868,1 52649U 22052BD  24126.16539630  .00024792  00000-0  15698-2 0  9990,2 52649  53.2173  42.5434 0001409  79.9866 280.1285 15.08851745109831,6917.844,95.437,540.684,538.735,0.0
52649.0,STARLINK-3868,PAYLOAD,2024-05-05 21:27:24,15.08868508,0.0001405,53.2177,39.272,81.78,278.3352,0.0013284,0.00020933,0.0,0 STARLINK-3868,1 52649U 22052BD  24126.89402921  .00020933  00000-0  13284-2 0  9994,2 52649  53.2177  39.2720 0001405  81.7800 278.3352 15.08868508109571,6917.793,95.436,540.63,538.686,0.0
52649.0,STARLINK-3868,PAYLOAD,2024-05-06 03:48:56,15.08881961,0.0001366,53.2183,38.0818,84.641,275.4738,0.0013759,0.00021702,0.0,0 STARLINK-3868,1 52649U 22052BD  24127.15898265  .00021702  00000-0  13759-2 0  9996,2 52649  53.2183  38.0818 0001366  84.6410 275.4738 15.08881961109987,6917.752,95.435,540.562,538.672,0.0
52649.0,STARLINK-3868,PAYLOAD,2024-05-06 22:53:32,15.08871622,0.0001442,53.2191,34.5127,112.0219,248.0927,0.00067628,0.00010501,0.0,0 STARLINK-3868,1 52649U 22052BD  24127.95385293  .00010501  00000-0  67628-3 0  9996,2 52649  53.2191  34.5127 0001442 112.0219 248.0927 15.08871622109730,6917.784,95.436,540.646,538.651,0.0
52649.0,STARLINK-3868,PAYLOAD,2024-05-07 00:28:56,15.08865799,0.0001229,53.2193,34.2162,95.0151,265.0982,0.00049737,7.642e-05,0.0,0 STARLINK-3868,1 52649U 22052BD  24128.02009361  .00007642  00000-0  49737-3 0  9997,2 52649  53.2193  34.2162 0001229  95.0151 265.0982 15.08865799110118,6917.802,95.436,540.517,538.816,0.0
52649.0,STARLINK-3868,PAYLOAD,2024-05-07 21:08:57,15.08839021,0.0001725,53.2189,30.3506,118.7509,241.3656,0.00045604,6.977e-05,0.0,0 STARLINK-3868,1 52649U 22052BD  24128.88121864  .00006977  00000-0  45604-3 0  9993,2 52649  53.2189  30.3506 0001725 118.7509 241.3656 15.08839021110241,6917.883,95.438,540.942,538.555,0.0
52649.0,STARLINK-3868,PAYLOAD,2024-05-08 03:30:30,15.08831977,0.0001363,53.2185,29.162,99.1422,260.9724,-0.0002246,-3.86e-05,0.0,0 STARLINK-3868,1 52649U 22052BD  24129.14618333 -.00003860  00000-0 -22460-3 0  9990,2 52649  53.2185  29.1620 0001363  99.1422 260.9724 15.08831977110283,6917.905,95.438,540.713,538.827,0.0
52649.0,STARLINK-3868,PAYLOAD,2024-05-08 09:52:02,15.08840122,0.0001202,53.2182,27.9738,100.7919,259.3208,-0.00011037,-2.044e-05,0.0,0 STARLINK-3868,1 52649U 22052BD  24129.41114137 -.00002044  00000-0 -11037-3 0  9994,2 52649  53.2182  27.9738 0001202 100.7919 259.3208 15.08840122109951,6917.88,95.438,540.577,538.913,0.0
52649.0,STARLINK-3868,PAYLOAD,2024-05-08 22:35:08,15.0883315,0.0001379,53.2184,25.5962,96.892,263.2229,-6.284e-06,-3.88e-06,0.0,0 STARLINK-3868,1 52649U 22052BD  24129.94106751 -.00000388  00000-0 -62840-5 0  9994,2 52649  53.2184  25.5962 0001379  96.8920 263.2229 15.08833150110039,6917.901,95.438,540.72,538.812,0.0
52649.0,STARLINK-3868,PAYLOAD,2024-05-09 09:42:49,15.08849069,0.0001243,53.2184,23.509,87.5134,272.6,0.00034576,5.22e-05,0.0,0 STARLINK-3868,1 52649U 22052BD  24130.40474106  .00005220  00000-0  34576-3 0  9990,2 52649  53.2184  23.5090 0001243  87.5134 272.6000 15.08849069110478,6917.853,95.437,540.578,538.858,0.0
52649.0,STARLINK-3868,PAYLOAD,2024-05-09 20:50:32,15.08839966,0.0001989,53.2176,21.4328,85.9013,274.2206,0.00022779,3.339e-05,0.0,0 STARLINK-3868,1 52649U 22052BD  24130.86843011  .00003339  00000-0  22779-3 0  9996,2 52649  53.2176  21.4328 0001989  85.9013 274.2206 15.08839966110544,6917.88,95.438,541.121,538.37,0.0
52649.0,STARLINK-3868,PAYLOAD,2024-05-09 22:25:55,15.08832911,0.0001698,53.2194,21.1338,87.1105,273.0082,0.00015313,2.149e-05,0.0,0 STARLINK-3868,1 52649U 22052BD  24130.93467264  .00002149  00000-0  15313-3 0  9990,2 52649  53.2194  21.1338 0001698  87.1105 273.0082 15.08832911110187,6917.902,95.438,540.942,538.592,0.0
52649.0,STARLINK-3868,PAYLOAD,2024-05-10 09:33:36,15.08849814,0.0001411,53.2185,19.0542,90.9336,269.1817,0.00030192,4.522e-05,0.0,0 STARLINK-3868,1 52649U 22052BD  24131.39834403  .00004522  00000-0  30192-3 0  9993,2 52649  53.2185  19.0542 0001411  90.9336 269.1817 15.08849814110251,6917.85,95.437,540.692,538.739,0.0
52649.0,STARLINK-3868,PAYLOAD,2024-05-10 20:41:19,15.08834981,0.0001441,53.2168,16.9735,99.4631,260.6525,8.2357e-05,1.023e-05,0.0,0 STARLINK-3868,1 52649U 22052BD  24131.86203409  .00001023  00000-0  82357-4 0  9995,2 52649  53.2168  16.9735 0001441  99.4631 260.6525 15.08834981110696,6917.896,95.438,540.758,538.764,0.0
52649.0,STARLINK-3868,PAYLOAD,2024-05-10 22:16:42,15.08841787,0.0001631,53.2181,16.6695,78.5751,281.5424,-1.2583e-05,-4.88e-06,0.0,0 STARLINK-3868,1 52649U 22052BD  24131.92827049 -.00000488  00000-0 -12583-4 0  9994,2 52649  53.2181  16.6695 0001631  78.5751 281.5424 15.08841787110338,6917.875,95.437,540.868,538.612,0.0
52649.0,STARLINK-3868,PAYLOAD,2024-05-11 01:27:27,15.08867061,0.0001296,53.2175,16.0744,124.8368,235.2746,0.00057491,8.88e-05,0.0,0 STARLINK-3868,1 52649U 22052BD  24132.06073943  .00008880  00000-0  57491-3 0  9994,2 52649  53.2175  16.0744 0001296 124.8368 235.2746 15.08867061110725,6917.798,95.436,540.559,538.766,0.0
52649.0,STARLINK-3868,PAYLOAD,2024-05-11 09:24:21,15.08924319,9.09e-05,53.2177,14.5902,118.7022,241.4062,0.0016247,0.00025724,0.0,0 STARLINK-3868,1 52649U 22052BD  24132.39191120  .00025724  00000-0  16247-2 0  9997,2 52649  53.2177  14.5902 0000909 118.7022 241.4062 15.08924319110770,6917.623,95.432,540.116,538.859,0.0
52649.0,STARLINK-3868,PAYLOAD,2024-05-11 20:32:01,15.08925695,0.0001673,53.218,12.512,7.0647,353.0368,0.001233,0.00019436,0.0,0 STARLINK-3868,1 52649U 22052BD  24132.85557011  .00019436  00000-0  12330-2 0  9995,2 52649  53.2180  12.5120 0001673   7.0647 353.0368 15.08925695110841,6917.618,95.432,540.641,538.326,0.0
52649.0,STARLINK-3868,PAYLOAD,2024-05-11 22:07:25,15.08842299,0.0001211,53.218,12.2146,101.476,258.6368,-0.0027868,-0.00044369,0.0,0 STARLINK-3868,1 52649U 22052BD  24132.92182095 -.00044369  00000-0 -27868-2 0  9996,2 52649  53.2180  12.2146 0001211 101.4760 258.6368 15.08842299110487,6917.873,95.437,540.576,538.901,0.0
52649.0,STARLINK-3868,PAYLOAD,2024-05-11 23:42:48,15.08833242,0.0001193,53.2166,11.9154,123.739,236.3715,-0.0030823,-0.00048999,0.0,0 STARLINK-3868,1 52649U 22052BD  24132.98806018 -.00048999  00000-0 -30823-2 0  9998,2 52649  53.2166  11.9154 0001193 123.7390 236.3715 15.08833242110860,6917.901,95.438,540.591,538.941,0.0
52649.0,STARLINK-3868,PAYLOAD,2024-05-12 09:15:08,15.08780716,0.0001189,53.2175,10.1302,110.5617,249.5503,-0.0036265,-0.0005745,0.0,0 STARLINK-3868,1 52649U 22052BD  24133.38551610 -.00057450  00000-0 -36265-2 0  9996,2 52649  53.2175  10.1302 0001189 110.5617 249.5503 15.08780716110922,6918.062,95.441,540.749,539.104,0.0
52649.0,STARLINK-3868,PAYLOAD,2024-05-12 20:22:54,15.08727741,0.0001543,53.2178,8.0502,92.4524,267.6644,-0.0015542,-0.00024862,0.0,0 STARLINK-3868,1 52649U 22052BD  24133.84923731 -.00024862  00000-0 -15542-2 0  9990,2 52649  53.2178   8.0502 0001543  92.4524 267.6644 15.08727741110995,6918.224,95.445,541.156,539.021,0.0
52649.0,STARLINK-3868,PAYLOAD,2024-05-12 21:58:17,15.08747262,0.0001374,53.2178,7.7522,104.6923,255.4221,-0.0019781,-0.00031552,0.0,0 STARLINK-3868,1 52649U 22052BD  24133.91547823 -.00031552  00000-0 -19781-2 0  9995,2 52649  53.2178   7.7522 0001374 104.6923 255.4221 15.08747262110631,6918.164,95.443,540.979,539.078,0.0
52649.0,STARLINK-3868,PAYLOAD,2024-05-13 09:06:01,15.08755257,0.0001555,53.2203,5.6688,109.0118,251.1043,-0.00077888,-0.00012634,0.0,0 STARLINK-3868,1 52649U 22052BD  24134.37918846 -.00012634  00000-0 -77888-3 0  9996,2 52649  53.2203   5.6688 0001555 109.0118 251.1043 15.08755257111073,6918.139,95.443,541.08,538.929,0.0
52649.0,STARLINK-3868,PAYLOAD,2024-05-14 00:59:54,15.08829299,0.0001401,53.2172,2.6987,73.5576,286.557,0.0020201,0.00031999,0.0,0 STARLINK-3868,1 52649U 22052BD  24135.04159768  .00031999  00000-0  20201-2 0  9990,2 52649  53.2172   2.6987 0001401  73.5576 286.5570 15.08829299111176,6917.913,95.438,540.747,538.809,0.0
52649.0,STARLINK-3868,PAYLOAD,2024-05-14 15:18:21,15.08846402,4.47e-05,53.2146,0.0215,43.8066,316.2961,0.0013612,0.00021446,0.0,0 STARLINK-3868,1 52649U 22052BD  24135.63774389  .00021446  00000-0  13612-2 0  9991,2 52649  53.2146   0.0215 0000447  43.8066 316.2961 15.08846402110894,6917.861,95.437,540.035,539.417,0.0
52649.0,STARLINK-3868,PAYLOAD,2024-05-14 21:39:52,15.08872171,0.0001304,53.216,358.8316,80.0376,280.0763,0.0014031,0.00022133,0.0,0 STARLINK-3868,1 52649U 22052BD  24135.90269354  .00022133  00000-0  14031-2 0  9992,2 52649  53.2160 358.8316 0001304  80.0376 280.0763 15.08872171110931,6917.782,95.436,540.549,538.745,0.0
52649.0,STARLINK-3868,PAYLOAD,2024-05-15 00:50:38,15.08893467,0.0001287,53.2169,358.2361,76.7259,283.3877,0.0012788,0.00020152,0.0,0 STARLINK-3868,1 52649U 22052BD  24136.03516338  .00020152  00000-0  12788-2 0  9990,2 52649  53.2169 358.2361 0001287  76.7259 283.3877 15.08893467111323,6917.717,95.434,540.472,538.692,0.0
52649.0,STARLINK-3868,PAYLOAD,2024-05-15 21:30:38,15.08846733,0.0001048,53.217,354.37,84.7182,275.393,-0.00061045,-9.992e-05,0.0,0 STARLINK-3868,1 52649U 22052BD  24136.89627542 -.00009992  00000-0 -61045-3 0  9996,2 52649  53.2170 354.3700 0001048  84.7182 275.3930 15.08846733111457,6917.86,95.437,540.45,539.0,0.0
